NORAD_CAT_ID,OBJECT_NAME,OBJECT_TYPE,EPOCH,MEAN_MOTION,ECCENTRICITY,INCLINATION,RA_OF_ASC_NODE,ARG_OF_PERICENTER,MEAN_ANOMALY,BSTAR,MEAN_MOTION_DOT,MEAN_MOTION_DDOT,TLE_LINE0,TLE_LINE1,TLE_LINE2,SEMIMAJOR_AXIS,PERIOD,APOGEE,PERIGEE,DECAYED
50171.0,STARLINK-3286,PAYLOAD,2024-02-24 12:14:45,15.0883709,0.0001435,53.2195,349.8729,106.5411,253.5739,-3.7009e-05,-8.77e-06,0.0,0 STARLINK-3286,1 50171U 21125R   24055.51024662 -.00000877  00000-0 -37009-4 0  9994,2 50171  53.2195 349.8729 0001435 106.5411 253.5739 15.08837090124253,6917.889,95.438,540.747,538.762,0.0
50171.0,STARLINK-3286,PAYLOAD,2024-02-24 20:11:40,15.08840587,0.000128,53.2183,348.3827,88.7734,271.3405,0.00012546,1.709e-05,0.0,0 STARLINK-3286,1 50171U 21125R   24055.84144604  .00001709  00000-0  12546-3 0  9990,2 50171  53.2183 348.3827 0001280  88.7734 271.3405 15.08840587124309,6917.879,95.438,540.629,538.858,0.0
50171.0,STARLINK-3286,PAYLOAD,2024-02-25 02:33:13,15.08849461,0.0001879,53.2186,347.189,64.7072,295.4115,0.00022049,3.224e-05,0.0,0 STARLINK-3286,1 50171U 21125R   24056.10640201  .00003224  00000-0  22049-3 0  9997,2 50171  53.2186 347.1890 0001879  64.7072 295.4115 15.08849461123856,6917.851,95.437,541.016,538.417,0.0
50171.0,STARLINK-3286,PAYLOAD,2024-02-25 12:05:31,15.08853323,0.0001904,53.219,345.4064,65.8765,294.2426,0.00024019,3.538e-05,0.0,0 STARLINK-3286,1 50171U 21125R   24056.50383864  .00003538  00000-0  24019-3 0  9997,2 50171  53.2190 345.4064 0001904  65.8765 294.2426 15.08853323124401,6917.84,95.437,541.022,538.388,0.0
50171.0,STARLINK-3286,PAYLOAD,2024-02-26 03:59:22,15.08855701,0.0001853,53.2206,342.4401,101.4329,258.6872,-0.00010469,-1.955e-05,0.0,0 STARLINK-3286,1 50171U 21125R   24057.16623514 -.00001955  00000-0 -10469-3 0  9996,2 50171  53.2206 342.4401 0001853 101.4329 258.6872 15.08855701124015,6917.832,95.437,540.979,538.416,0.0
50171.0,STARLINK-3286,PAYLOAD,2024-02-26 18:17:52,15.08832942,0.0001326,53.2194,339.7619,84.0487,276.0656,-0.00018026,-3.155e-05,0.0,0 STARLINK-3286,1 50171U 21125R   24057.76240845 -.00003155  00000-0 -18026-3 0  9995,2 50171  53.2194 339.7619 0001326  84.0487 276.0656 15.08832942124103,6917.902,95.438,540.684,538.85,0.0
50171.0,STARLINK-3286,PAYLOAD,2024-02-27 03:50:09,15.08860932,0.0001333,53.219,337.972,115.8402,244.2727,0.00017337,2.474e-05,0.0,0 STARLINK-3286,1 50171U 21125R   24058.15983309  .00002474  00000-0  17337-3 0  9993,2 50171  53.2190 337.9720 0001333 115.8402 244.2727 15.08860932124162,6917.816,95.436,540.604,538.759,0.0
50171.0,STARLINK-3286,PAYLOAD,2024-02-27 11:47:05,15.08844997,0.0001542,53.2192,336.4958,77.3746,282.7419,3.3827e-05,2.5e-06,0.0,0 STARLINK-3286,1 50171U 21125R   24058.49104084  .00000250  00000-0  33827-4 0  9998,2 50171  53.2192 336.4958 0001542  77.3746 282.7419 15.08844997124210,6917.865,95.437,540.797,538.663,0.0
50171.0,STARLINK-3286,PAYLOAD,2024-02-27 22:54:48,15.08834524,0.000158,53.2181,334.4141,80.5309,279.5861,3.7049e-05,3.02e-06,0.0,0 STARLINK-3286,1 50171U 21125R   24058.95472821  .00000302  00000-0  37049-4 0  9994,2 50171  53.2181 334.4141 0001580  80.5309 279.5861 15.08834524124774,6917.897,95.438,540.855,538.669,0.0
50171.0,STARLINK-3286,PAYLOAD,2024-02-28 11:37:53,15.08839256,0.0001418,53.2162,332.0313,90.9914,269.1241,-4.1988e-06,-3.55e-06,0.0,0 STARLINK-3286,1 50171U 21125R   24059.48464460 -.00000355  00000-0 -41988-5 0  9991,2 50171  53.2162 332.0313 0001418  90.9914 269.1241 15.08839256124364,6917.883,95.438,540.729,538.767,0.0
50171.0,STARLINK-3286,PAYLOAD,2024-02-28 22:45:35,15.08835839,0.0001475,53.2161,329.9497,89.9104,270.2057,3.4562e-05,2.62e-06,0.0,0 STARLINK-3286,1 50171U 21125R   24059.94832923  .00000262  00000-0  34562-4 0  9999,2 50171  53.2161 329.9497 0001475  89.9104 270.2057 15.08835839124926,6917.893,95.438,540.778,538.738,0.0
50171.0,STARLINK-3286,PAYLOAD,2024-02-29 11:28:40,15.08843762,0.0001482,53.2187,327.5677,103.0455,257.0702,-7.6708e-05,-1.509e-05,0.0,0 STARLINK-3286,1 50171U 21125R   24060.47824768 -.00001509  00000-0 -76708-4 0  9992,2 50171  53.2187 327.5677 0001482 103.0455 257.0702 15.08843762125007,6917.869,95.437,540.759,538.709,0.0
50171.0,STARLINK-3286,PAYLOAD,2024-02-29 21:00:59,15.0882976,0.0001266,53.2169,325.7855,99.6316,260.482,0.00018226,2.613e-05,0.0,0 STARLINK-3286,1 50171U 21125R   24060.87569181  .00002613  00000-0  18226-3 0  9996,2 50171  53.2169 325.7855 0001266  99.6316 260.4820 15.08829760124573,6917.912,95.438,540.652,538.901,0.0
50171.0,STARLINK-3286,PAYLOAD,2024-02-29 22:36:22,15.08828667,0.000113,53.2178,325.4883,103.3171,256.7947,0.00019654,2.841e-05,0.0,0 STARLINK-3286,1 50171U 21125R   24060.94193243  .00002841  00000-0  19654-3 0  9995,2 50171  53.2178 325.4883 0001130 103.3171 256.7947 15.08828667125072,6917.915,95.438,540.562,538.998,0.0
50171.0,STARLINK-3286,PAYLOAD,2024-03-01 03:22:31,15.08843716,0.0001444,53.2177,324.5964,98.453,261.6626,6.1563e-05,6.92e-06,0.0,0 STARLINK-3286,1 50171U 21125R   24061.14064701  .00000692  00000-0  61563-4 0  9993,2 50171  53.2177 324.5964 0001444  98.4530 261.6626 15.08843716124612,6917.869,95.437,540.733,538.735,0.0
50171.0,STARLINK-3286,PAYLOAD,2024-03-01 20:51:46,15.08838147,0.0001479,53.2173,321.3242,108.9886,251.1267,0.00010139,1.326e-05,0.0,0 STARLINK-3286,1 50171U 21125R   24061.86929075  .00001326  00000-0  10139-3 0  9993,2 50171  53.2173 321.3242 0001479 108.9886 251.1267 15.08838147124720,6917.886,95.438,540.774,538.728,0.0
50171.0,STARLINK-3286,PAYLOAD,2024-03-01 22:27:09,15.08838601,0.000145,53.2177,321.0268,109.2109,250.904,0.00011073,1.475e-05,0.0,0 STARLINK-3286,1 50171U 21125R   24061.93553044  .00001475  00000-0  11073-3 0  9993,2 50171  53.2177 321.0268 0001450 109.2109 250.9040 15.08838601125227,6917.885,95.438,540.753,538.747,0.0
50171.0,STARLINK-3286,PAYLOAD,2024-03-02 00:02:32,15.08844527,0.0001422,53.2181,320.7293,103.908,256.2071,7.8892e-05,9.68e-06,0.0,0 STARLINK-3286,1 50171U 21125R   24062.00176768  .00000968  00000-0  78892-4 0  9995,2 50171  53.2181 320.7293 0001422 103.9080 256.2071 15.08844527125232,6917.867,95.437,540.715,538.748,0.0
50171.0,STARLINK-3286,PAYLOAD,2024-03-02 22:17:56,15.08845771,0.0001737,53.2183,316.5651,106.2082,253.9101,-3.2427e-05,-8.04e-06,0.0,0 STARLINK-3286,1 50171U 21125R   24062.92912973 -.00000804  00000-0 -32427-4 0  9997,2 50171  53.2183 316.5651 0001737 106.2082 253.9101 15.08845771125377,6917.863,95.437,540.929,538.526,0.0
50171.0,STARLINK-3286,PAYLOAD,2024-03-03 03:04:06,15.08843742,0.0001336,53.2176,315.674,108.6786,251.4351,6.4797e-05,7.44e-06,0.0,0 STARLINK-3286,1 50171U 21125R   24063.12784872  .00000744  00000-0  64797-4 0  9991,2 50171  53.2176 315.6740 0001336 108.6786 251.4351 15.08843742124915,6917.869,95.437,540.658,538.81,0.0
50171.0,STARLINK-3286,PAYLOAD,2024-03-03 09:25:38,15.08852379,0.000147,53.2185,314.482,114.0064,246.1082,-0.00014214,-2.55e-05,0.0,0 STARLINK-3286,1 50171U 21125R   24063.39280681 -.00002550  00000-0 -14214-3 0  9996,2 50171  53.2185 314.4820 0001470 114.0064 246.1082 15.08852379125447,6917.843,95.437,540.724,538.691,0.0
50171.0,STARLINK-3286,PAYLOAD,2024-03-03 20:33:21,15.08841432,0.0001297,53.2181,312.4012,92.6823,267.4318,-2.8352e-05,-7.39e-06,0.0,0 STARLINK-3286,1 50171U 21125R   24063.85649527 -.00000739  00000-0 -28352-4 0  9991,2 50171  53.2181 312.4012 0001297  92.6823 267.4318 15.08841432125519,6917.876,95.437,540.638,538.844,0.0
50171.0,STARLINK-3286,PAYLOAD,2024-03-04 09:16:25,15.08848596,0.0001318,53.2184,310.0223,98.4934,261.6207,0.00013782,1.907e-05,0.0,0 STARLINK-3286,1 50171U 21125R   24064.38640366  .00001907  00000-0  13782-3 0  9998,2 50171  53.2184 310.0223 0001318  98.4934 261.6207 15.08848596125107,6917.854,95.437,540.631,538.807,0.0
50171.0,STARLINK-3286,PAYLOAD,2024-03-04 21:59:29,15.08852522,0.0001287,53.2179,307.644,80.1647,279.9491,0.00013386,1.844e-05,0.0,0 STARLINK-3286,1 50171U 21125R   24064.91631913  .00001844  00000-0  13386-3 0  9995,2 50171  53.2179 307.6440 0001287  80.1647 279.9491 15.08852522125671,6917.842,95.437,540.597,538.817,0.0
50171.0,STARLINK-3286,PAYLOAD,2024-03-05 01:10:15,15.08857287,0.0001373,53.2177,307.0493,78.9564,281.1583,0.00017278,2.464e-05,0.0,0 STARLINK-3286,1 50171U 21125R   24065.04879424  .00002464  00000-0  17278-3 0  9994,2 50171  53.2177 307.0493 0001373  78.9564 281.1583 15.08857287125209,6917.828,95.436,540.642,538.743,0.0
50171.0,STARLINK-3286,PAYLOAD,2024-03-05 21:50:18,15.08824867,0.0001319,53.2162,303.1863,77.9338,282.1802,-0.00032082,-5.388e-05,0.0,0 STARLINK-3286,1 50171U 21125R   24065.90993465 -.00005388  00000-0 -32082-3 0  9991,2 50171  53.2162 303.1863 0001319  77.9338 282.1802 15.08824867125336,6917.927,95.439,540.704,538.879,0.0
50171.0,STARLINK-3286,PAYLOAD,2024-03-05 23:25:41,15.0882611,0.000134,53.2166,302.8893,77.7964,282.3178,-0.00029104,-4.915e-05,0.0,0 STARLINK-3286,1 50171U 21125R   24065.97617460 -.00004915  00000-0 -29104-3 0  9992,2 50171  53.2166 302.8893 0001340  77.7964 282.3178 15.08826110125832,6917.923,95.438,540.715,538.861,0.0
50171.0,STARLINK-3286,PAYLOAD,2024-03-06 20:05:41,15.08838992,0.0001022,53.2164,299.0212,93.3426,266.7683,5.1649e-06,-2.06e-06,0.0,0 STARLINK-3286,1 50171U 21125R   24066.83728926 -.00000206  00000-0  51649-5 0  9997,2 50171  53.2164 299.0212 0001022  93.3426 266.7683 15.08838992125474,6917.883,95.438,540.455,539.041,0.0
50171.0,STARLINK-3286,PAYLOAD,2024-03-07 08:48:45,15.0885933,0.0001319,53.2176,296.6443,79.026,281.0881,5.3121e-05,5.58e-06,0.0,0 STARLINK-3286,1 50171U 21125R   24067.36719702  .00000558  00000-0  53121-4 0  9993,2 50171  53.2176 296.6443 0001319  79.0260 281.0881 15.08859330126045,6917.821,95.436,540.599,538.774,0.0
50171.0,STARLINK-3286,PAYLOAD,2024-03-08 15:01:06,15.08836578,0.0001783,53.2178,290.9885,118.176,241.9412,0.00047825,7.331e-05,0.0,0 STARLINK-3286,1 50171U 21125R   24068.62577452  .00007331  00000-0  47825-3 0  9996,2 50171  53.2178 290.9885 0001783 118.1760 241.9412 15.08836578126234,6917.891,95.438,540.989,538.522,0.0
